postcode,Suburb,lat,lon,Region,Average_per_person,website
3000,CBD,-37.814563,144.970267,Inner Melbourne,294,"https://www.google.com/maps/place/CBD,+Melbourne+VIC+3000/@-37.8141457,144.9586522,14z/data=!4m5!3m4!1s0x6ad642caf37771c5:0x834e664d24dced61!8m2!3d-37.8123652!4d144.9623382"
3002,EAST MELBOURNE,-37.81664,144.987811,Inner Melbourne,288,"https://www.google.com/maps/place/East+Melbourne+VIC+3002/@-37.815423,144.972592,15z/data=!3m1!4b1!4m5!3m4!1s0x6ad642c1bc526ecf:0x5045675218ce800!8m2!3d-37.813!4d144.985"
3003,WEST MELBOURNE,-37.806255,144.941123,Inner Melbourne,260,"https://www.google.com/maps/place/West+Melbourne+VIC+3003/@-37.8105372,144.9134409,14z/data=!3m1!4b1!4m5!3m4!1s0x6ad642d8348ddb79:0x5045675218ce7f0!8m2!3d-37.808!4d144.927"
3006,SOUTHBANK,-37.823258,144.965926,Inner Melbourne,289,"https://www.google.com/maps/place/Southbank+VIC+3006/@-37.8253632,144.9504107,15z/data=!3m1!4b1!4m5!3m4!1s0x6ad65d450a8be10f:0x5045675218cfec0!8m2!3d-37.829!4d144.957"
3008,DOCKLANDS,-37.814719,144.948039,Inner Melbourne,308,"https://www.google.com/maps/place/Docklands+VIC+3008/@-37.8181345,144.9205144,14z/data=!3m1!4b1!4m5!3m4!1s0x6ad65d674616d46f:0x5045675218cfdf0!8m2!3d-37.817!4d144.946"
3011,FOOTSCRAY,-37.79977,144.899587,Outer Western Melbourne,191,"https://www.google.com/maps/place/Footscray+VIC+3011/@-37.8008278,144.8803823,14z/data=!3m1!4b1!4m5!3m4!1s0x6ad65d8d9fc4c127:0x5045675218ce740!8m2!3d-37.798!4d144.899"
3011,SEDDON,-37.808769,144.895486,Outer Western Melbourne,187,"https://www.google.com/maps/place/Seddon+VIC+3011/@-37.8064624,144.8878186,16z/data=!3m1!4b1!4m5!3m4!1s0x6ad6675f7c5d8e51:0x5045675218cf870!8m2!3d-37.8055831!4d144.891002"
3012,WEST FOOTSCRAY,-37.797701,144.879924,Outer Western Melbourne,177,"https://www.google.com/maps/place/West+Footscray+VIC+3012/@-37.8015942,144.8557539,14z/data=!3m1!4b1!4m5!3m4!1s0x6ad65dff08ea0be9:0x5045675218cd7c0!8m2!3d-37.8020576!4d144.8703715"
3013,YARRAVILLE,-37.816178,144.889774,Outer Western Melbourne,187,"https://www.google.com/maps/place/Yarraville+VIC+3013/@-37.8015942,144.8557539,14z/data=!4m5!3m4!1s0x6ad66748d8e0dbbd:0x5045675218cd8b0!8m2!3d-37.817!4d144.89"
3015,NEWPORT,-37.842477,144.883145,Outer Western Melbourne,178,"https://www.google.com/maps/place/Newport+VIC+3015/@-37.8454922,144.8651726,14z/data=!3m1!4b1!4m5!3m4!1s0x6ad66770228a334b:0x5045675218ce890!8m2!3d-37.842!4d144.884"
3015,SPOTSWOOD,-37.82967,144.885078,Outer Western Melbourne,178,"https://www.google.com/maps/place/Spotswood+VIC+3015/@-37.830159,144.8687795,14z/data=!3m1!4b1!4m5!3m4!1s0x6ad6673a4f947235:0x5045675218ce820!8m2!3d-37.831!4d144.887"
3016,WILLIAMSTOWN,-37.856902,144.897698,Outer Western Melbourne,196,"https://www.google.com/maps/place/Williamstown+VIC+3016/@-37.830159,144.8687795,14z/data=!4m5!3m4!1s0x6ad666549e99d41d:0x5045675218ce910!8m2!3d-37.861!4d144.885"
3018,ALTONA,-37.869275,144.830286,Outer Western Melbourne,172,"https://www.google.com/maps/place/Altona+VIC+3018/@-37.8534105,144.3502536,10.02z/data=!4m5!3m4!1s0x6ad6619dc1713221:0x5045675218cda70!8m2!3d-37.868!4d144.83"
3020,SUNSHINE,-37.79983,144.81845,Outer Western Melbourne,155,"https://www.google.com/maps/place/Sunshine+VIC+3020/@-37.8534105,144.3502536,10.02z/data=!4m5!3m4!1s0x6ad66080e62d2e61:0x5045675218cd4e0!8m2!3d-37.781!4d144.832"
3021,ST ALBANS,-37.745063,144.799626,Outer Western Melbourne,155,"https://www.google.com/maps/place/St+Albans+VIC+3021/@-37.7897123,144.8136966,14z/data=!4m5!3m4!1s0x6ad65f984f5edb83:0x5045675218cd3b0!8m2!3d-37.736111!4d144.803889"
3023,DEER PARK,-37.770312,144.77472,Outer Western Melbourne,155,"https://www.google.com/maps/place/Deer+Park+VIC+3023/@-37.7479658,144.7706848,13z/data=!4m5!3m4!1s0x6ad68ab2b3c67947:0x5045675218cd500!8m2!3d-37.763!4d144.767"
3029,HOPPERS CROSSING,-37.882636,144.700297,Outer Western Melbourne,152,"https://www.google.com/maps/place/Deer+Park+VIC+3023/@-37.7670331,144.7575212,14z/data=!3m1!4b1!4m5!3m4!1s0x6ad68ab2b3c67947:0x5045675218cd500!8m2!3d-37.763!4d144.767"
3030,WERRIBEE,-37.903337,144.657731,Outer Western Melbourne,152,"https://www.google.com/maps/place/Werribee+VIC+3030/@-37.7670331,144.7575212,14z/data=!4m5!3m4!1s0x6ad6850d13023053:0x5045675218ce940!8m2!3d-37.9!4d144.664"
3031,FLEMINGTON,-37.788375,144.931472,Inner Melbourne,205,"https://www.google.com/maps/place/Flemington+VIC+3031/@-37.7872716,144.9039221,14z/data=!3m1!4b1!4m5!3m4!1s0x6ad65d06677ef7c7:0x5045675218cd750!8m2!3d-37.785!4d144.928"
3031,KENSINGTON,-37.794333,144.929217,Inner Melbourne,205,"https://www.google.com/maps/place/Kensington+VIC+3031/@-37.7948816,144.9166321,15z/data=!3m1!4b1!4m5!3m4!1s0x6ad65d0e81dca47d:0x5045675218ce770!8m2!3d-37.791!4d144.931"
3032,ASCOT VALE,-37.77583,144.923377,North Western Melbourne,200,"https://www.google.com/maps/place/Ascot+Vale+VIC+3032/@-37.7798463,144.8989362,14z/data=!3m1!4b1!4m5!3m4!1s0x6ad65daa855159b7:0x5045675218cd6f0!8m2!3d-37.779!4d144.919"
3033,KEILOR EAST,-37.736264,144.796336,Outer Western Melbourne,199,"https://www.google.com/maps/place/Keilor+East+VIC+3033/@-37.7367306,144.8379977,14z/data=!3m1!4b1!4m5!3m4!1s0x6ad65ebe7dc6fd43:0x5045675218cd360!8m2!3d-37.741667!4d144.863056"
3034,AVONDALE HEIGHTS,-37.742284,144.81515,Outer Western Melbourne,199,"https://www.google.com/maps/place/Avondale+Heights+VIC+3034/@-37.7629567,144.8474023,14z/data=!3m1!4b1!4m5!3m4!1s0x6ad65e7c5511eebd:0x5045675218cd520!8m2!3d-37.762!4d144.863"
3037,SYDENHAM,-37.70004,144.764617,Outer Western Melbourne,172,"https://www.google.com/maps/place/Sydenham+VIC+3037/@-37.6961242,144.7512406,14z/data=!3m1!4b1!4m5!3m4!1s0x6ad6f5e3ff174e31:0x5045675218cd180!8m2!3d-37.702!4d144.767"
3039,MOONEE PONDS,-37.765707,144.919163,North Western Melbourne,200,"https://www.google.com/maps/place/Moonee+Ponds+VIC+3039/@-37.7653755,144.9022391,14z/data=!3m1!4b1!4m5!3m4!1s0x6ad65cf67cdec057:0x5045675218cd610!8m2!3d-37.765!4d144.92"
3040,ESSENDON,-37.754973,144.917407,North Western Melbourne,190,"https://www.google.com/maps/place/Essendon+VIC+3040/@-37.7437695,144.891636,14z/data=!4m8!1m2!2m1!1sESSENDON!3m4!1s0x6ad65c635ab5a92b:0x5045675218cd470!8m2!3d-37.749!4d144.912"
3043,GLADSTONE PARK,-37.68861,144.883628,North Western Melbourne,167,"https://www.google.com/maps/place/Gladstone+Park+VIC+3043/@-37.7492285,144.894753,14z/data=!4m5!3m4!1s0x6ad65a360eb11129:0x5045675218cfca0!8m2!3d-37.688!4d144.892"
3043,TULLAMARINE,-37.68656,144.882698,North Western Melbourne,167,"https://www.google.com/maps/place/Tullamarine+VIC+3043/@-37.6925391,144.877187,14z/data=!4m5!3m4!1s0x6ad65bd0a1a139d1:0x5045675218cd120!8m2!3d-37.701!4d144.876"
3044,PASCOE VALE,-37.727568,144.939122,North Western Melbourne,191,"https://www.google.com/maps/place/Pascoe+Vale+VIC+3044/@-37.7028067,144.8341085,13z/data=!4m5!3m4!1s0x6ad65b641305cf0f:0x5045675218cd330!8m2!3d-37.727!4d144.942"
3044,PASCOE VALE SOUTH,-37.739198,144.945722,North Western Melbourne,170,"https://www.google.com/maps/place/Pascoe+Vale+South+VIC+3044/@-37.7431539,144.9201768,14z/data=!3m1!4b1!4m5!3m4!1s0x6ad65b680d990ccf:0x5045675218cd440!8m2!3d-37.7431!4d144.9377"
3046,GLENROY,-37.704581,144.915758,North Western Melbourne,180,"https://www.google.com/maps/place/Glenroy+VIC+3046/@-37.7431539,144.9201768,14z/data=!4m5!3m4!1s0x6ad644b4aec2547b:0x5045675218cd210!8m2!3d-37.706!4d144.924"
3046,OAK PARK,-37.71817,144.919959,North Western Melbourne,180,"https://www.google.com/maps/place/Oak+Park+VIC+3046/@-37.7040967,144.9111298,14z/data=!4m5!3m4!1s0x6ad65ba09353bb03:0x5045675218cd310!8m2!3d-37.718!4d144.919"
3047,BROADMEADOWS,-37.680792,144.921009,North Western Melbourne,170,"https://www.google.com/maps/place/Broadmeadows+VIC+3047/@-37.7182712,144.9067349,15z/data=!4m5!3m4!1s0x6ad65bea11574fe9:0x5045675218cd0f0!8m2!3d-37.685!4d144.925"
3051,NORTH MELBOURNE,-37.905996,145.056254,Inner Melbourne,260,"https://www.google.com/maps/place/North+Melbourne+VIC+3051/@-37.7968057,144.9381133,15z/data=!3m1!4b1!4m5!3m4!1s0x6ad65d283acb6965:0x5045675218ce760!8m2!3d-37.799167!4d144.946667"
3052,PARKVILLE,-37.788531,144.947731,Inner Melbourne,260,"https://www.google.com/maps/place/Parkville+VIC+3052/@-37.7968057,144.9381133,15z/data=!4m5!3m4!1s0x6ad65cd73202124d:0x5045675218ce710!8m2!3d-37.788!4d144.951"
3053,CARLTON,-37.784337,144.969747,Inner Melbourne,260,"https://www.google.com/maps/place/Carlton+VIC+3053/@-37.8000912,144.9583385,15z/data=!3m1!4b1!4m5!3m4!1s0x6ad642d153982dd1:0x5045675218ce780!8m2!3d-37.8001!4d144.9671"
3054,CARLTON NORTH,-37.784337,144.969747,Inner Melbourne,243,"https://www.google.com/maps/place/Carlton+North+VIC+3054/@-37.8000912,144.9583385,15z/data=!4m5!3m4!1s0x6ad64331c4841339:0x5045675218cd740!8m2!3d-37.7890434!4d144.9694441"
3056,BRUNSWICK,-37.764829,144.943778,North Western Melbourne,225,"https://www.google.com/maps/place/Brunswick+VIC+3056/@-37.7666905,144.9453454,14z/data=!3m1!4b1!4m5!3m4!1s0x6ad65cb927b1a969:0x5045675218cd5b0!8m2!3d-37.7667!4d144.9628"
3058,COBURG,-37.743188,144.966279,North Western Melbourne,199,"https://www.google.com/maps/place/Coburg+VIC+3058/@-37.7449263,144.9471847,14z/data=!3m1!4b1!4m5!3m4!1s0x6ad644c098f4d5eb:0x5045675218cd430!8m2!3d-37.7438!4d144.9645"
3058,COBURG NORTH,-37.730842,144.971699,North Western Melbourne,191,"https://www.google.com/maps/place/Coburg+North+VIC+3058/@-37.7270727,144.9501383,14z/data=!3m1!4b1!4m5!3m4!1s0x6ad6452338429ea1:0x5045675218cd350!8m2!3d-37.726!4d144.96"
3060,FAWKNER,-37.759823,144.89571,North Western Melbourne,180,"https://www.google.com/maps/place/Fawkner+VIC+3060/@-37.7048138,144.9518916,14z/data=!3m1!4b1!4m5!3m4!1s0x6ad645326f4c077d:0x5045675218cd1f0!8m2!3d-37.707!4d144.968"
3064,CRAIGIEBURN,-37.598975,144.941287,North Western Melbourne,162,"https://www.google.com/maps/place/Craigieburn+VIC+3064/@-37.5813562,144.8525037,12z/data=!3m1!4b1!4m5!3m4!1s0x6ad6523220f38a83:0x5045675218ccea0!8m2!3d-37.594!4d144.934"
3064,ROXBURGH PARK,-37.636795,144.932604,North Western Melbourne,170,"https://www.google.com/maps/place/Roxburgh+Park+VIC+3064/@-37.6257409,144.9079333,14z/data=!3m1!4b1!4m5!3m4!1s0x6ad651ae6014515b:0x5045675218ccf90!8m2!3d-37.627!4d144.929"
3065,FITZROY,-37.800917,144.979165,Inner Melbourne,295,"https://www.google.com/maps/place/Fitzroy+VIC+3065/@-37.8009169,144.9704107,15z/data=!3m1!4b1!4m5!3m4!1s0x6ad642c0f56a65c1:0x5045675218ce790!8m2!3d-37.801111!4d144.978889"
3066,COLLINGWOOD,-37.800366,144.984149,Inner Melbourne,265,"https://www.google.com/maps/place/Collingwood+VIC+3066/@-37.8018761,144.9793951,15z/data=!3m1!4b1!4m8!1m2!2m1!1sCOLLINGWOOD!3m4!1s0x6ad642e19df445ad:0x5045675218ce7a0!8m2!3d-37.8019!4d144.98815"
3067,ABBOTSFORD,-37.801781,144.998752,Inner Melbourne,265,"https://www.google.com/maps/place/Abbotsford+VIC+3067/@-37.8037161,144.994848,15z/data=!3m1!4b1!4m5!3m4!1s0x6ad64300c7048673:0x5045675218ce7b0!8m2!3d-37.803!4d145.002"
3068,CLIFTON HILL,-37.788118,144.992067,Inner Melbourne,245,"https://www.google.com/maps/place/Clifton+Hill+VIC+3068/@-37.8037161,144.994848,15z/data=!4m5!3m4!1s0x6ad6430dab62da09:0x5045675218cd780!8m2!3d-37.789!4d144.999"
3068,FITZROY NORTH,-37.7834,144.984688,Inner Melbourne,245,"https://www.google.com/maps/place/Fitzroy+North+VIC+3068/@-37.7892981,144.9880853,15z/data=!4m5!3m4!1s0x6ad643152843f2af:0x5045675218cd710!8m2!3d-37.784!4d144.986"
3070,NORTHCOTE,-37.769857,144.995276,North Eastern Melbourne,242,"https://www.google.com/maps/place/Northcote+VIC+3070/@-37.7834471,144.9681604,14z/data=!4m5!3m4!1s0x6ad6437c221de473:0x5045675218cd650!8m2!3d-37.7722!4d144.9994"
3071,THORNBURY,-37.75504,144.998589,North Eastern Melbourne,200,"https://www.google.com/maps/place/Thornbury+VIC+3071/@-37.7584493,144.9882136,14z/data=!3m1!4b1!4m5!3m4!1s0x6ad644627105f5d5:0x5045675218cd530!8m2!3d-37.76!4d145.007"
3072,PRESTON,-37.738736,145.000515,North Eastern Melbourne,199,"https://www.google.com/maps/place/Preston+VIC+3072/@-37.7416434,144.9915718,14z/data=!3m1!4b1!4m5!3m4!1s0x6ad64456e71092f9:0x5045675218cd3c0!8m2!3d-37.743!4d145.008"
3073,RESERVOIR,-37.716897,145.006985,North Eastern Melbourne,175,"https://www.google.com/maps/place/Reservoir+VIC+3073/@-37.7123332,144.9705545,13z/data=!3m1!4b1!4m5!3m4!1s0x6ad64583e8b67cc7:0x5045675218cd200!8m2!3d-37.713056!4d145.011944"
3074,THOMASTOWN,-37.680338,145.014287,North Eastern Melbourne,162,"https://www.google.com/maps/place/Thomastown+VIC+3074/@-37.7123332,144.9705545,13z/data=!4m5!3m4!1s0x6ad64f7392595b09:0x5045675218cd100!8m2!3d-37.682!4d145.014"
3075,LALOR,-37.665857,145.017194,North Eastern Melbourne,162,"https://www.google.com/maps/place/Lalor+VIC+3075/@-37.6832185,144.976472,13z/data=!4m5!3m4!1s0x6ad64f06ef0a1603:0x5045675218cd0b0!8m2!3d-37.667!4d145.02"
3076,EPPING,-37.638363,145.009493,North Eastern Melbourne,162,"https://www.google.com/maps/place/Epping+VIC+3076/@-37.6383583,144.9744734,13z/data=!3m1!4b1!4m5!3m4!1s0x6ad64e893ad501e1:0x5045675218ccfd0!8m2!3d-37.638!4d145.01"
3078,ALPHINGTON,-37.780767,145.03116,North Eastern Melbourne,212,"https://www.google.com/maps/place/Alphington+VIC+3078/@-37.6383583,144.9744734,13z/data=!4m5!3m4!1s0x6ad6441328b2dc6d:0x5045675218cf6c0!8m2!3d-37.78!4d145.023"
3078,FAIRFIELD,-37.776946,145.018479,North Eastern Melbourne,212,"https://www.google.com/maps/place/Fairfield+VIC+3078/@-37.7781093,145.0147102,14z/data=!4m5!3m4!1s0x6ad6439ae823f7e3:0x5045675218ce700!8m2!3d-37.792!4d145.011"
3079,IVANHOE,-37.76964,145.041425,North Eastern Melbourne,210,"https://www.google.com/maps/place/Ivanhoe+VIC+3079/@-37.7703677,145.0282352,14z/data=!3m1!4b1!4m5!3m4!1s0x6ad64395e191a311:0x5045675218cd5e0!8m2!3d-37.7703!4d145.0457"
3079,IVANHOE EAST,-37.77283,145.059401,North Eastern Melbourne,210,"https://www.google.com/maps/place/Ivanhoe+East+VIC+3079/@-37.7745208,145.0541033,15z/data=!3m1!4b1!4m5!3m4!1s0x6ad6438c21ccb093:0x5045675218cd6b0!8m2!3d-37.772!4d145.066"
3081,HEIDELBERG WEST,-37.74944,145.0414,North Eastern Melbourne,196,"https://www.google.com/maps/place/Heidelberg+West+VIC+3081/@-37.7745208,145.0541033,15z/data=!4m5!3m4!1s0x6ad645d7115926a9:0x5045675218cfdb0!8m2!3d-37.744!4d145.047"
3082,MILL PARK,-37.667957,145.060693,North Eastern Melbourne,162,"https://www.google.com/maps/place/Mill+Park+VIC+3082/@-37.6641677,145.0475517,14z/data=!3m1!4b1!4m5!3m4!1s0x6ad6493947b53431:0x5045675218cd080!8m2!3d-37.671!4d145.062"
3083,BUNDOORA,-37.70132,145.071967,North Eastern Melbourne,178,"https://www.google.com/maps/place/Bundoora+VIC+3083/@-37.7028204,145.0294732,13z/data=!3m1!4b1!4m5!3m4!1s0x6ad648bf8539b447:0x5045675218cd130!8m2!3d-37.695!4d145.064"
3084,HEIDELBERG,-37.756341,145.067145,North Eastern Melbourne,196,"https://www.google.com/maps/place/Heidelberg+VIC+3084/@-37.7028204,145.0294732,13z/data=!4m5!3m4!1s0x6ad646682061e731:0x5045675218cd4f0!8m2!3d-37.752!4d145.07"
3088,GREENSBOROUGH,-37.704622,145.103024,North Eastern Melbourne,178,"https://www.google.com/maps/place/Greensborough+VIC+3088/@-37.7513722,145.0611855,15z/data=!4m5!3m4!1s0x6ad64842ea5adcf7:0x5045675218cd150!8m2!3d-37.686!4d145.117"
3094,MONTMORENCY,-37.715294,145.121583,North Eastern Melbourne,184,"https://www.google.com/maps/place/Montmorency+VIC+3094/@-37.6997624,145.0662008,13z/data=!4m5!3m4!1s0x6ad6483a6312c679:0x5045675218cd2c0!8m2!3d-37.719!4d145.126"
3095,ELTHAM,-37.71383,145.148537,North Eastern Melbourne,184,"https://www.google.com/maps/place/Eltham+VIC+3095/@-37.7202853,145.1065248,14z/data=!4m5!3m4!1s0x6ad637b45b29c27d:0x5045675218cd240!8m2!3d-37.715!4d145.158"
3095,RESEARCH,-37.703602,145.180636,North Eastern Melbourne,184,"https://www.google.com/maps/place/Research+VIC+3095/@-37.7057584,145.1532142,13z/data=!3m1!4b1!4m8!1m2!2m1!1sRESEARCH!3m4!1s0x6ad636f3e4273375:0x5045675218cd1e0!8m2!3d-37.707!4d145.18"
3099,HURSTBRIDGE,-37.640166,145.192477,North Eastern Melbourne,178,"https://www.google.com/maps/place/Hurstbridge+VIC+3099/@-37.6369758,145.1616801,13z/data=!3m1!4b1!4m5!3m4!1s0x6ad634eb8b90279f:0x5045675218ccfa0!8m2!3d-37.638889!4d145.195"
3101,KEW,-37.797982,145.053727,Inner Eastern Melbourne,212,"https://www.google.com/maps/place/Kew+VIC+3101/@-37.8014711,145.0133822,14z/data=!3m1!4b1!4m5!3m4!1s0x6ad643c1171f9cc3:0x5045675218ce750!8m2!3d-37.805278!4d145.035833"
3103,BALWYN,-37.809701,145.082303,Inner Eastern Melbourne,212,"https://www.google.com/maps/place/Balwyn+VIC+3103/@-37.8097008,145.0656092,14z/data=!3m1!4b1!4m5!3m4!1s0x6ad6413b3565bd43:0x5045675218cd830!8m2!3d-37.808889!4d145.078889"
3105,BULLEEN,-37.768554,145.079543,Inner Eastern Melbourne,219,"https://www.google.com/maps/place/Bulleen+VIC+3105/@-37.7669906,145.0682015,14z/data=!3m1!4b1!4m5!3m4!1s0x6ad646fb27a91b33:0x5045675218cd560!8m2!3d-37.77!4d145.09"
3106,TEMPLESTOWE,-37.768882,145.117873,Inner Eastern Melbourne,219,"https://www.google.com/maps/place/Templestowe+VIC+3106/@-37.7562616,145.1126002,13z/data=!3m1!4b1!4m5!3m4!1s0x6ad6380a10e5173d:0x5045675218cd450!8m2!3d-37.753!4d145.135"
3108,DONCASTER,-37.783031,145.122517,Inner Eastern Melbourne,219,"https://www.google.com/maps/place/Doncaster+VIC+3108/@-37.7830314,145.1049815,14z/data=!3m1!4b1!4m5!3m4!1s0x6ad6472a6aa3a563:0x5045675218cd6e0!8m2!3d-37.787!4d145.124"
3109,DONCASTER EAST,-37.811994,145.19474,Inner Eastern Melbourne,204,"https://www.google.com/maps/place/Doncaster+East+VIC+3109/@-37.7757999,145.1282614,13z/data=!3m1!4b1!4m5!3m4!1s0x6ad6468dfb5a1305:0x5045675218cd4c0!8m2!3d-37.783!4d145.166"
3111,DONVALE,-38.183899,144.468019,Inner Eastern Melbourne,204,"https://www.google.com/maps/place/Donvale+VIC+3111/@-37.7757999,145.1282614,13z/data=!4m5!3m4!1s0x6ad639ad0f7d5f5f:0x5045675218cd670!8m2!3d-37.797!4d145.175"
3121,BURNLEY,-37.826869,145.007098,Inner Melbourne,275,"https://www.google.com/maps/place/Burnley+VIC+3121/@-37.7866982,145.1595133,13z/data=!4m5!3m4!1s0x6ad642434500a155:0x5045675218cd980!8m2!3d-37.8299258!4d145.0176466"
3121,RICHMOND,-37.818587,144.999181,Inner Melbourne,275,"https://www.google.com/maps/place/Richmond+VIC+3121/@-37.8220624,144.9853486,14z/data=!3m1!4b1!4m5!3m4!1s0x6ad64259018db945:0x5045675218ce810!8m2!3d-37.823!4d144.998"
3122,HAWTHORN,-37.834855,145.052097,Inner Eastern Melbourne,225,"https://www.google.com/maps/place/Hawthorn+VIC+3122/@-37.8286152,145.0131177,14z/data=!3m1!4b1!4m8!1m2!2m1!1sHAWTHORN!3m4!1s0x6ad642390570a5c1:0x5045675218cd8f0!8m2!3d-37.826!4d145.034"
3124,CAMBERWELL,-37.824818,145.057957,Inner Eastern Melbourne,223,"https://www.google.com/maps/place/Camberwell+VIC+3124/@-37.8286152,145.0131177,14z/data=!4m5!3m4!1s0x6ad63f63ad12c04f:0x5045675218cd960!8m2!3d-37.835!4d145.071"
3125,BURWOOD,-37.852805,145.151909,Inner Eastern Melbourne,222,"https://www.google.com/maps/place/Burwood+VIC+3125/@-37.835636,145.0581358,14z/data=!4m5!3m4!1s0x6ad6405e68fe18f5:0x5045675218cda10!8m2!3d-37.85!4d145.114"
3126,CANTERBURY,-37.824249,145.073114,Inner Eastern Melbourne,215,"https://www.google.com/maps/place/Canterbury+VIC+3126/@-37.8241427,144.9847916,12z/data=!4m8!1m2!2m1!1sCANTERBURY!3m4!1s0x6ad6410d1deefb63:0x5045675218cd920!8m2!3d-37.825!4d145.078"
3127,MONT ALBERT,-37.821232,145.104996,Inner Eastern Melbourne,215,"https://www.google.com/maps/place/Mont+Albert+VIC+3127/@-37.8242493,145.0556516,14z/data=!4m5!3m4!1s0x6ad640c475a3a901:0x5045675218cfe00!8m2!3d-37.816111!4d145.11"
3127,SURREY HILLS,-37.825077,145.097412,Inner Eastern Melbourne,215,"https://www.google.com/maps/place/Surrey+Hills+VIC+3127/@-37.8252754,145.0820704,14z/data=!3m1!4b1!4m5!3m4!1s0x6ad640e6d54af80f:0x5045675218cd8c0!8m2!3d-37.83!4d145.106"
3128,BOX HILL,-37.817455,145.119314,Inner Eastern Melbourne,225,"https://www.google.com/maps/place/Box+Hill+VIC+3128/@-37.8252754,145.0820704,14z/data=!4m5!3m4!1s0x6ad640a5542b19f7:0x5045675218cd900!8m2!3d-37.8215!4d145.126"
3130,BLACKBURN,-37.819374,145.153852,Inner Eastern Melbourne,200,"https://www.google.com/maps/place/Blackburn+VIC+3130/@-37.8215001,145.1174221,15z/data=!4m5!3m4!1s0x6ad638b42e39b407:0x5045675218cd8a0!8m2!3d-37.826!4d145.151"
3131,FOREST HILL,-37.834099,145.166527,Inner Eastern Melbourne,191,"https://www.google.com/maps/place/Forest+Hill+VIC+3131/@-37.8215461,145.134521,14z/data=!4m5!3m4!1s0x6ad63f23475a9d8b:0x5045675218cda00!8m2!3d-37.842!4d145.172"
3131,NUNAWADING,-37.820037,145.175726,Inner Eastern Melbourne,192,"https://www.google.com/maps/place/Nunawading+VIC+3131/@-37.816914,145.1590111,14z/data=!3m1!4b1!4m5!3m4!1s0x6ad63f2d7406910f:0x5045675218cd850!8m2!3d-37.817!4d145.177"
3132,MITCHAM,-37.816878,145.193712,Inner Eastern Melbourne,192,"https://www.google.com/maps/place/Mitcham+VIC+3132/@-37.8169479,145.1814904,14z/data=!3m1!4b1!4m5!3m4!1s0x6ad6391597c26779:0x5045675218cd860!8m2!3d-37.818!4d145.197"
3133,VERMONT,-37.836235,145.194651,Inner Eastern Melbourne,191,"https://www.google.com/maps/place/Vermont+VIC+3133/@-37.8387291,145.1819288,14z/data=!3m1!4b1!4m8!1m2!2m1!1sVERMONT!3m4!1s0x6ad63ecb69dc416b:0x5045675218cd9c0!8m2!3d-37.838!4d145.198"
3134,RINGWOOD,-37.81402,145.227362,Outer Eastern Melbourne,177,"https://www.google.com/maps/place/Ringwood+VIC+3134/@-37.8099849,145.2038489,13z/data=!3m1!4b1!4m5!3m4!1s0x6ad63c09922b6adb:0x5045675218cd790!8m2!3d-37.8114!4d145.2306"
3136,CROYDON,-37.798729,145.280685,Outer Eastern Melbourne,175,"https://www.google.com/maps/place/Croydon+VIC+3136/@-37.7913278,145.2464787,13z/data=!3m1!4b1!4m5!3m4!1s0x6ad62e1e86d7699b:0x5045675218cd6d0!8m2!3d-37.796!4d145.281"
3140,LILYDALE,-37.755519,145.347707,Outer Eastern Melbourne,175,"https://www.google.com/maps/place/Lilydale+VIC+3140/@-37.7913278,145.2464787,13z/data=!4m5!3m4!1s0x6ad62ef5b997879b:0x5045675218cd420!8m2!3d-37.758!4d145.35"
3141,SOUTH YARRA,-37.837883,144.991123,Inner Melbourne,277,"https://www.google.com/maps/place/South+Yarra+VIC+3141/@-37.7617748,145.3366002,13z/data=!4m5!3m4!1s0x6ad6682f2586859b:0x5045675218ce880!8m2!3d-37.84!4d144.989"
3142,TOORAK,-37.84216,145.017966,Inner Melbourne,248,"https://www.google.com/maps/place/Toorak+VIC+3142/@-37.8378816,144.9736116,14z/data=!4m5!3m4!1s0x6ad64270233922c7:0x5045675218cd9b0!8m2!3d-37.841!4d145.018"
3143,ARMADALE,-37.85934,145.018505,Inner Melbourne,250,"https://www.google.com/maps/place/Armadale+VIC+3143/@-37.8576843,145.0106796,15z/data=!3m1!4b1!4m5!3m4!1s0x6ad669ccb9783e99:0x5045675218cdac0!8m2!3d-37.857!4d145.021"
3144,MALVERN,-37.861427,145.028508,Southern Melbourne,228,"https://www.google.com/maps/place/Malvern+VIC+3144/@-37.8584378,145.0181495,14z/data=!3m1!4b1!4m5!3m4!1s0x6ad642042822ce15:0x5045675218cda30!8m2!3d-37.857!4d145.036"
3145,MALVERN EAST,-37.87837,145.067892,Southern Melbourne,216,"https://www.google.com/maps/place/Malvern+East+VIC+3145/@-37.8782231,145.0471235,14z/data=!3m1!4b1!4m5!3m4!1s0x6ad66a116cf2cd79:0x5045675218cdba0!8m2!3d-37.878!4d145.06"
3146,GLEN IRIS,-37.854687,145.067215,Inner Eastern Melbourne,223,"https://www.google.com/maps/place/Glen+Iris+VIC+3146/@-37.8564679,145.0501193,14z/data=!3m1!4b1!4m5!3m4!1s0x6ad641e5f97c93a7:0x5045675218cda90!8m2!3d-37.856!4d145.059"
3147,ASHBURTON,-37.863393,145.07942,Inner Eastern Melbourne,222,"https://www.google.com/maps/place/Ashburton+VIC+3147/@-37.8862515,145.0807788,17z/data=!4m5!3m4!1s0x6ad641ce85fa48c1:0x5045675218cdb00!8m2!3d-37.866944!4d145.083056"
3148,CHADSTONE,-37.886372,145.082527,Inner Eastern Melbourne,202,"https://www.google.com/maps/place/Chadstone+Shopping+Centre/@-37.8862515,145.0807788,17z/data=!3m1!4b1!4m5!3m4!1s0x6ad66a66054c293f:0xf0456760532d460!8m2!3d-37.8862515!4d145.0829675"
3149,MOUNT WAVERLEY,-37.875273,145.128398,Inner Eastern Melbourne,201,"https://www.google.com/maps/place/Mount+Waverley+VIC+3149/@-37.8823014,145.101584,12z/data=!4m5!3m4!1s0x6ad66b2665fa6e53:0x5045675218cdaf0!8m2!3d-37.877!4d145.131"
3150,GLEN WAVERLEY,-37.877631,145.166222,Inner Eastern Melbourne,202,"https://www.google.com/maps/place/Glen+Waverley+VIC+3150/@-37.8537194,145.1153154,13z/data=!4m5!3m4!1s0x6ad66bb67ebd66cb:0x5045675218cdb40!8m2!3d-37.8856521!4d145.165179"
3151,BURWOOD EAST,-37.858352,145.138553,Inner Eastern Melbourne,191,"https://www.google.com/maps/place/Burwood+East+VIC+3151/@-37.8537194,145.1153154,13z/data=!3m1!4b1!4m5!3m4!1s0x6ad63f79de7310b7:0x5045675218cdaa0!8m2!3d-37.852!4d145.15"
3152,WANTIRNA,-37.847915,145.228757,Outer Eastern Melbourne,186,"https://www.google.com/maps/place/Wantirna+VIC+3152/@-37.8462884,145.1927363,12z/data=!4m5!3m4!1s0x6ad63ea86374392d:0x5045675218cda40!8m2!3d-37.844!4d145.229"
3153,BAYSWATER,-37.84126,145.266725,Outer Eastern Melbourne,173,"https://www.google.com/maps/place/Bayswater+VIC+3153/@-37.8537959,145.2141311,12z/data=!4m5!3m4!1s0x6ad63b9b0b47a7bd:0x5045675218cd9e0!8m2!3d-37.843!4d145.268"
3155,BORONIA,-37.861504,145.275762,Outer Eastern Melbourne,178,"https://www.google.com/maps/place/Boronia+VIC+3155/@-37.8861538,145.2120391,12z/data=!4m5!3m4!1s0x6ad63b41d3e4ac3d:0x5045675218cd9f0!8m2!3d-37.862!4d145.286"
3156,FERNTREE GULLY,-37.883019,145.295404,Outer Eastern Melbourne,174,"https://www.google.com/maps/place/Ferntree+Gully+VIC+3156/@-37.8840122,144.991537,13z/data=!4m5!3m4!1s0x6ad63ced2679a4cd:0x5045675218cdbb0!8m2!3d-37.8862!4d145.2821"
3162,CAULFIELD,-37.880479,145.026806,Southern Melbourne,223,"https://www.google.com/maps/place/Caulfield+VIC+3162/@-37.8840122,144.991537,13z/data=!3m1!4b1!4m5!3m4!1s0x6ad6696cd1a408d7:0x5045675218cf900!8m2!3d-37.884!4d145.0266"
3163,CARNEGIE,-37.889336,145.058121,Southern Melbourne,218,"https://www.google.com/maps/place/Carnegie+VIC+3163/@-37.8963708,145.0517572,14z/data=!4m5!3m4!1s0x6ad6698e96878b6f:0x5045675218cdc40!8m2!3d-37.888!4d145.062"
3163,MURRUMBEENA,-37.89069,145.067589,Southern Melbourne,212,"https://www.google.com/maps/place/Murrumbeena+VIC+3163/@-37.8983232,145.0637069,14z/data=!4m5!3m4!1s0x6ad66a379778c353:0x5045675218cdca0!8m2!3d-37.899!4d145.072"
3166,HUGHESDALE,-37.895763,145.076545,Southern Melbourne,212,"https://www.google.com/maps/place/Hughesdale+VIC+3166/@-37.8983232,145.0637069,14z/data=!3m1!4b1!4m5!3m4!1s0x6ad66a4540ffbad5:0x5045675218cf910!8m2!3d-37.894!4d145.085"
3166,OAKLEIGH,-37.899854,145.087116,Inner Eastern Melbourne,202,"https://www.google.com/maps/place/Oakleigh+VIC+3166/@-37.9152481,145.0595282,12z/data=!4m5!3m4!1s0x6ad66af5d286cba1:0x5045675218cdcd0!8m2!3d-37.9020702!4d145.0962067"
3168,CLAYTON,-37.925488,145.119662,Inner Eastern Melbourne,191,"https://www.google.com/maps/place/Clayton+VIC+3168/@-37.9213608,145.1137938,12z/data=!4m5!3m4!1s0x6ad66ad657aee985:0x5045675218cddc0!8m2!3d-37.915!4d145.13"
3170,MULGRAVE,-37.869611,145.102866,Inner Eastern Melbourne,202,"https://www.google.com/maps/place/Mulgrave+VIC+3170/@-37.9441218,145.0918697,12z/data=!4m5!3m4!1s0x6ad6157466820f57:0x5045675218cdd80!8m2!3d-37.928!4d145.174"
3171,SPRINGVALE,-37.97103,145.148499,South Eastern Melbourne,175,"https://www.google.com/maps/place/Springvale+VIC+3171/@-37.9659833,145.1427604,13z/data=!4m5!3m4!1s0x6ad614c0d3dd90df:0x5045675218cde40!8m2!3d-37.947!4d145.153"
3174,NOBLE PARK,-37.967254,145.176167,South Eastern Melbourne,163,"https://www.google.com/maps/place/Noble+Park+VIC+3174/@-37.9855752,145.143849,12z/data=!4m5!3m4!1s0x6ad6140c20dc0331:0x5045675218cdea0!8m2!3d-37.967!4d145.176"
3175,DANDENONG,-37.987271,145.214317,South Eastern Melbourne,150,"https://www.google.com/maps/place/Dandenong+VIC+3175/@-37.9550651,145.1795203,13z/data=!4m5!3m4!1s0x6ad613fe1cf71e9f:0x5045675218cdf80!8m2!3d-37.981!4d145.215"
3175,DANDENONG NORTH,-37.965724,145.205645,South Eastern Melbourne,160,"https://www.google.com/maps/place/Dandenong+North+VIC+3175/@-37.9550651,145.1795203,13z/data=!3m1!4b1!4m5!3m4!1s0x6ad6142d638755a5:0x5045675218cdeb0!8m2!3d-37.959!4d145.208"
3178,ROWVILLE,-37.928005,145.235811,Outer Eastern Melbourne,187,"https://www.google.com/maps/place/Rowville+VIC+3178/@-37.9052049,145.1479217,12z/data=!4m5!3m4!1s0x6ad6162ae837ad2f:0x5045675218cdd90!8m2!3d-37.937!4d145.229"
3179,SCORESBY,-37.864883,145.26427,Outer Eastern Melbourne,186,"https://www.google.com/maps/place/Scoresby+VIC+3179/@-37.852925,144.9632391,13z/data=!4m5!3m4!1s0x6ad63e0b502c2325:0x5045675218cdc30!8m2!3d-37.894!4d145.234"
3181,PRAHRAN,-37.849577,144.993714,Inner Melbourne,251,"https://www.google.com/maps/place/Prahran+VIC+3181/@-37.8547154,144.9746323,14z/data=!4m5!3m4!1s0x6ad66823873270b5:0x5045675218ce8e0!8m2!3d-37.852!4d144.998"
3181,WINDSOR,-37.856159,144.9922,Inner Melbourne,251,"https://www.google.com/maps/place/Windsor+VIC+3181/@-37.8547154,144.9746323,14z/data=!3m1!4b1!4m5!3m4!1s0x6ad6683c75da0c83:0x5045675218cf810!8m2!3d-37.854!4d144.988"
3182,ST KILDA,-37.867573,144.978814,Inner Melbourne,242,"https://www.google.com/maps/place/St+Kilda+VIC+3182/@-37.8810138,144.9507385,13z/data=!4m5!3m4!1s0x6ad6686866392389:0x5045675218cdae0!8m2!3d-37.864!4d144.982"
3184,ELWOOD,-37.888121,144.985026,Inner Melbourne,227,"https://www.google.com/maps/place/Elwood+VIC+3184/@-37.8867996,144.989018,14z/data=!4m5!3m4!1s0x6ad668f37f1dd61d:0x5045675218cdbe0!8m2!3d-37.884!4d144.986"
3185,ELSTERNWICK,-37.884724,145.004153,Southern Melbourne,224,"https://www.google.com/maps/place/Elsternwick+VIC+3185/@-37.9080256,144.9593374,13z/data=!4m5!3m4!1s0x6ad6684a16b9d105:0x5045675218cdc20!8m2!3d-37.887!4d145.006"
3186,BRIGHTON,-37.913149,144.991682,Southern Melbourne,270,"https://www.google.com/maps/place/Brighton+VIC+3186/@-37.9164187,144.9844218,13z/data=!4m5!3m4!1s0x6ad6692281478c97:0x5045675218cdd40!8m2!3d-37.905!4d144.996"
3187,BRIGHTON EAST,-37.904879,145.002603,Southern Melbourne,226,"https://www.google.com/maps/place/Brighton+East+VIC+3187/@-37.9378459,144.9736594,13z/data=!4m5!3m4!1s0x6ad6693088c5e6a5:0x5045675218cdd60!8m2!3d-37.916!4d145.015"
3188,HAMPTON,-37.89802,144.991601,Southern Melbourne,236,"https://www.google.com/maps/place/Hampton+VIC+3188/@-37.9619344,144.9901776,12z/data=!4m5!3m4!1s0x6ad66edef41b619d:0x5045675218cde80!8m2!3d-37.937!4d145.009"
3192,CHELTENHAM,-37.96451,145.055873,Southern Melbourne,204,"https://www.google.com/maps/place/Cheltenham+VIC+3192/@-37.9836102,145.0039958,13z/data=!4m5!3m4!1s0x6ad66c242b139a7b:0x5045675218cdf20!8m2!3d-37.967!4d145.068"
3193,BEAUMARIS,-37.986285,145.032876,Southern Melbourne,236,"https://www.google.com/maps/place/Beaumaris+VIC+3193/@-37.9842169,145.003471,12z/data=!4m5!3m4!1s0x6ad66e679ea78917:0x5045675218cdf90!8m2!3d-37.983!4d145.0434"
3194,MENTONE,-37.982859,145.0649,Southern Melbourne,198,"https://www.google.com/maps/place/Mentone+VIC+3194/@-38.0220299,145.0663668,13z/data=!4m5!3m4!1s0x6ad66db5b771d1ed:0x5045675218cdfa0!8m2!3d-37.985!4d145.068889"
3195,ASPENDALE,-38.026479,145.101908,Southern Melbourne,188,"https://www.google.com/maps/place/Aspendale+VIC+3195/@-37.9983457,145.0601182,13z/data=!4m5!3m4!1s0x6ad66d7b9c597581:0x5045675218ce060!8m2!3d-38.025!4d145.104"
3195,MORDIALLOC,-38.007154,145.086849,Southern Melbourne,198,"https://www.google.com/maps/place/Mordialloc+VIC+3195/@-37.9936959,145.0465229,13z/data=!4m5!3m4!1s0x6ad66da799b93551:0x5045675218cdfd0!8m2!3d-37.999!4d145.092"
3195,PARKDALE,-37.992659,145.075479,Southern Melbourne,198,"https://www.google.com/maps/place/Parkdale+VIC+3195/@-38.049643,145.0865975,13z/data=!4m5!3m4!1s0x6ad66da84852492d:0x5045675218cfa40!8m2!3d-37.991!4d145.08"
3196,CHELSEA,-38.052346,145.115941,Southern Melbourne,188,"https://www.google.com/maps/place/Chelsea+VIC+3196/@-38.049643,145.0865975,13z/data=!3m1!4b1!4m8!1m2!2m1!1sCHELSEA!3m4!1s0x6ad672a7ee65f51b:0x5045675218ce120!8m2!3d-38.051111!4d145.121944"
3197,CARRUM,-38.076364,145.123205,Southern Melbourne,188,"https://www.google.com/maps/place/Carrum+VIC+3197/@-38.106253,145.1071066,13z/data=!4m5!3m4!1s0x6ad67329017543eb:0x5045675218ce140!8m2!3d-38.076!4d145.122"
3198,SEAFORD,-38.110191,145.142512,Mornington Peninsula,161,"https://www.google.com/maps/place/Seaford+VIC+3198/@-38.1508571,145.0713816,12z/data=!4m5!3m4!1s0x6ad60cd0754a3c7f:0x5045675218ce1a0!8m2!3d-38.105!4d145.132"
3199,FRANKSTON,-38.145001,145.122477,Mornington Peninsula,158,"https://www.google.com/maps/place/Frankston+VIC+3199/@-38.0970633,145.1059396,12z/data=!4m5!3m4!1s0x6ad60b2a48d44683:0x5045675218ce240!8m2!3d-38.158!4d145.135"
3201,CARRUM DOWNS,-38.090783,145.191719,Mornington Peninsula,161,"https://www.google.com/maps/place/Carrum+Downs+VIC+3201/@-38.0970633,145.1059396,12z/data=!3m1!4b1!4m5!3m4!1s0x6ad60cfbe3a22a1f:0x5045675218ce170!8m2!3d-38.096!4d145.178"
3204,BENTLEIGH,-37.918057,145.035444,Southern Melbourne,216,"https://www.google.com/maps/place/Bentleigh+VIC+3204/@-37.8340529,144.9210356,13z/data=!4m5!3m4!1s0x6ad6694fe94aea05:0x5045675218cde10!8m2!3d-37.922!4d145.036"
3205,SOUTH MELBOURNE,-37.93291,145.033718,Inner Melbourne,275,"https://www.google.com/maps/place/South+Melbourne+VIC+3205/@-37.845366,144.9257616,13z/data=!4m5!3m4!1s0x6ad667fc041b9c61:0x5045675218ce850!8m2!3d-37.835!4d144.96"
3206,ALBERT PARK,-37.840705,144.95571,Inner Melbourne,249,"https://www.google.com/maps/place/Albert+Park+VIC+3206/@-37.845366,144.9257616,13z/data=!3m1!4b1!4m5!3m4!1s0x6ad667e1dead25bd:0x5045675218ce8a0!8m2!3d-37.842!4d144.95"
3206,MIDDLE PARK,-37.849721,144.965136,Inner Melbourne,249,"https://www.google.com/maps/place/Middle+Park+VIC+3206/@-37.8343078,144.8533284,12z/data=!4m5!3m4!1s0x6ad667e8e4a96ded:0x5045675218ce8d0!8m2!3d-37.851944!4d144.963056"
3207,PORT MELBOURNE,-37.975682,145.030468,Inner Melbourne,296,"https://www.google.com/maps/place/Port+Melbourne+VIC+3207/@-38.0105438,144.2739419,11z/data=!4m5!3m4!1s0x6ad6663fb8ef31f7:0x5045675218ce840!8m2!3d-37.823889!4d144.911111"
3212,LARA,-38.022416,144.407891,Geelong,144,"https://www.google.com/maps/place/Lara+VIC+3212/@-38.0675041,144.3073434,12z/data=!4m5!3m4!1s0x6ad4188cebcbaf81:0x5045675218cdf10!8m2!3d-38.016667!4d144.416667"
3214,CORIO,-38.074162,144.358659,Geelong,132,"https://www.google.com/maps/place/Corio+VIC+3214/@-38.0675041,144.3073434,12z/data=!3m1!4b1!4m5!3m4!1s0x6ad419db24fad705:0x5045675218ce130!8m2!3d-38.074!4d144.359"
3215,NORTH GEELONG,-38.110822,144.343406,Geelong,153,"https://www.google.com/maps/place/North+Geelong+VIC+3215/@-38.1142848,144.3149264,13z/data=!3m1!4b1!4m5!3m4!1s0x6ad4119bf19c567d:0x5045675218ce9e0!8m2!3d-38.1093956!4d144.3521811"
3216,BELMONT,-38.175587,144.342666,Geelong,152,"https://www.google.com/maps/place/Belmont+VIC+3216/@-38.2027014,144.2616914,12z/data=!4m5!3m4!1s0x6ad4137e993ba25b:0x5045675218ce310!8m2!3d-38.173!4d144.341"
3216,GROVEDALE,-38.200538,144.323683,Geelong,152,"https://www.google.com/maps/place/Grovedale+VIC+3216/@-38.2027014,144.2616914,12z/data=!3m1!4b1!4m5!3m4!1s0x6ad46cb3484e7ccb:0x5045675218ce3c0!8m2!3d-38.2!4d144.35"
3218,GEELONG WEST,-38.142148,144.348006,Geelong,142,"https://www.google.com/maps/place/Geelong+West+VIC+3218/@-38.1340581,144.2846068,13z/data=!4m5!3m4!1s0x6ad413fdfd60c915:0x5045675218ce9d0!8m2!3d-38.133333!4d144.35"
3218,HERNE HILL,-38.133564,144.331213,Geelong,142,"https://www.google.com/maps/place/Herne+Hill+VIC+3218/@-38.1340581,144.2846068,13z/data=!3m1!4b1!4m5!3m4!1s0x6ad4115f0f6606d7:0x5045675218ce9b0!8m2!3d-38.1329!4d144.3305"
3220,GEELONG,-38.14729,144.360735,Geelong,150,"https://www.google.com/maps/place/Geelong+VIC+3220/@-38.1481348,144.3278614,13z/data=!3m1!4b1!4m5!3m4!1s0x6ad4141c29a5d0cf:0x5045675218ce990!8m2!3d-38.1499181!4d144.3617186"
3220,NEWTOWN,-38.153717,144.334977,Geelong,153,"https://www.google.com/maps/place/Newtown+NSW+2042/@-33.899906,151.1627187,14z/data=!3m1!4b1!4m5!3m4!1s0x6b12b0366307e97f:0x5017d681632c370!8m2!3d-33.897!4d151.1793"
3226,OCEAN GROVE,-38.270293,144.540778,Other Regional Centres,163,"https://www.google.com/maps/place/Ocean+Grove+VIC+3226/@-38.2737787,144.4536048,13z/data=!4m5!3m4!1s0x6ad438ec7eb30839:0x5045675218ce430!8m2!3d-38.25!4d144.516667"
3227,BARWON HEADS,-38.281078,144.49179,Other Regional Centres,163,"https://www.google.com/maps/place/Barwon+Heads+VIC+3227/@-38.3128763,144.1895519,11z/data=!4m5!3m4!1s0x6ad44090207201c1:0x5045675218ce4a0!8m2!3d-38.2739835!4d144.4862111"
3228,TORQUAY,-38.332818,144.32389,Other Regional Centres,170,"https://www.google.com/maps/place/Torquay+VIC+3228/@-38.3128763,144.1895519,11z/data=!3m1!4b1!4m5!3m4!1s0x6ad46eaec5a8b033:0x5045675218ce560!8m2!3d-38.333333!4d144.316667"
3280,WARRNAMBOOL,-38.383313,142.482959,Other Regional Centres,125,"https://www.google.com/maps/place/Warrnambool+VIC+3280/@-37.7412503,141.7345725,10z/data=!4m5!3m4!1s0x6acd4dc9b65fc4a1:0x50579a430a0d5e0!8m2!3d-38.3686779!4d142.4982086"
3300,HAMILTON,-37.743025,142.020065,Other Regional Centres,97,"https://www.google.com/maps/place/Hamilton+VIC+3300/@-38.3634596,141.4684062,11z/data=!4m5!3m4!1s0x6acce17acd0e29c1:0x40579a430a0c5f0!8m2!3d-37.7455702!4d142.0178976"
3305,PORTLAND,-38.351032,141.587701,Other Regional Centres,90,"https://www.google.com/maps/place/Portland+VIC+3305/@-38.3634596,141.4684062,11z/data=!3m1!4b1!4m5!3m4!1s0xaa9d9868637a0a11:0x50579a430a0d5a0!8m2!3d-38.360895!4d141.6041155"
3337,MELTON,-37.683206,144.58315,Outer Western Melbourne,133,"https://www.google.com/maps/place/Melton+VIC/@-37.6776474,144.4237507,11z/data=!3m1!4b1!4m5!3m4!1s0x6ad6ecdfbb149633:0x99962ac4a94dca9e!8m2!3d-37.6691421!4d144.5437205"
3350,ALFREDTON,-37.556958,143.817225,Ballarat,118,"https://www.google.com/maps/place/Alfredton+VIC+3350/@-37.5673693,143.7126557,11z/data=!4m5!3m4!1s0x6ad14314bc6077cf:0x50579a430a0d650!8m2!3d-37.555!4d143.8"
3350,BALLARAT,-37.563318,143.863715,Ballarat,125,"https://www.google.com/maps/place/Ballarat+VIC/@-37.6036129,143.8025314,12z/data=!4m5!3m4!1s0x6ad1445430931879:0x40579a430a0b720!8m2!3d-37.5621587!4d143.8502556"
3350,MOUNT CLEAR,-37.603114,143.868659,Ballarat,122,"https://www.google.com/maps/place/Mount+Clear+VIC+3350/@-37.5309577,143.7559277,12z/data=!4m5!3m4!1s0x6ad15b2a36262561:0x50579a430a0d800!8m2!3d-37.602!4d143.868"
3355,WENDOUREE,-37.54022,143.831297,Ballarat,118,"https://www.google.com/maps/place/Wendouree+VIC+3355/@-37.5811046,143.7346708,12z/data=!4m5!3m4!1s0x6ad144752f08bb09:0x50579a430a0d8f0!8m2!3d-37.532!4d143.823"
3356,DELACOMBE,-37.58453,143.807662,Ballarat,120,"https://www.google.com/maps/place/Delacombe+VIC+3356/@-37.6021502,143.7992274,13z/data=!4m5!3m4!1s0x6ad15cb5aaa7b157:0x50579a430a0d720!8m2!3d-37.589!4d143.814"
3356,SEBASTOPOL,-37.597592,143.841026,Ballarat,120,"https://www.google.com/maps/place/Sebastopol+VIC+3356/@-37.6481538,143.7613964,11z/data=!4m5!3m4!1s0x6ad15b5b4943a173:0x50579a430a0d8a0!8m2!3d-37.585278!4d143.839444"
3357,BUNINYONG,-37.648547,143.918563,Ballarat,122,"https://www.google.com/maps/place/Buninyong+VIC+3357/@-37.6481538,143.7613964,11z/data=!3m1!4b1!4m5!3m4!1s0x6ad15a60623e46f9:0x40579a430a0b800!8m2!3d-37.650278!4d143.883889"
3400,HORSHAM,-36.711714,142.204899,Other Regional Centres,107,"https://www.google.com/maps/place/Horsham+VIC+3400/@-36.7172407,142.1261669,12z/data=!3m1!4b1!4m5!3m4!1s0x6ace4535fb847865:0x50579a430a0d530!8m2!3d-36.7188618!4d142.1962316"
3429,SUNBURY,-37.576859,144.731425,North Western Melbourne,161,"https://www.google.com/maps/place/Sunbury+VIC+3429/@-37.5533091,144.5664046,11z/data=!3m1!4b1!4m5!3m4!1s0x6ad6f9776c84f27b:0x5045675218cce30!8m2!3d-37.581111!4d144.713889"
3450,CASTLEMAINE,-37.063869,144.217101,Other Regional Centres,141,"https://www.google.com/maps/place/Castlemaine+VIC+3450/@-37.0592361,144.1480903,12z/data=!3m1!4b1!4m5!3m4!1s0x6ad730d7a6d21159:0x50579a430a0d1f0!8m2!3d-37.058136!4d144.2185006"
3500,MILDURA,-34.181714,142.163072,Other Regional Centres,104,"https://www.google.com/maps/place/Mildura+VIC+3500/@-34.2106613,141.9935187,11z/data=!3m1!4b1!4m5!3m4!1s0x6ac30469ecf799c3:0x50579a430a0d4f0!8m2!3d-34.2080167!4d142.1245535"
3550,BENDIGO,-36.758492,144.280075,Bendigo,125,"https://www.google.com/maps/place/Bendigo+VIC+3550/@-36.7561747,144.2451324,13z/data=!3m1!4b1!4m5!3m4!1s0x6ad759eb3c77c5e3:0x50579a430a0d940!8m2!3d-36.7570157!4d144.2793906"
3550,FLORA HILL,-36.774405,144.290098,Bendigo,124,"https://www.google.com/maps/place/Flora+Hill+VIC+3550/@-36.7376845,144.2440044,13z/data=!4m5!3m4!1s0x6ad75a2ec9a95e5f:0x50579a430a0d9b0!8m2!3d-36.7793071!4d144.2948079"
3550,NORTH BENDIGO,-36.748507,144.280995,Bendigo,124,"https://www.google.com/maps/place/North+Bendigo+VIC+3550/@-36.774974,144.1813713,12z/data=!4m5!3m4!1s0x6ad759ca3017d36b:0x50579a430a0da60!8m2!3d-36.7359634!4d144.2784231"
3555,GOLDEN SQUARE,-36.774862,144.263168,Bendigo,128,"https://www.google.com/maps/place/Golden+Square+VIC+3555/@-36.8062459,144.1729564,12z/data=!4m5!3m4!1s0x6ad750a3ab9c810d:0x50579a430a0d9d0!8m2!3d-36.766667!4d144.25"
3555,KANGAROO FLAT,-36.796876,144.243973,Bendigo,128,"https://www.google.com/maps/place/Kangaroo+Flat+VIC+3555/@-36.1546092,144.4816034,10z/data=!4m5!3m4!1s0x6ad750809ed2b695:0x50579a430a0da10!8m2!3d-36.783333!4d144.233333"
3564,ECHUCA,-36.128659,144.748178,Other Regional Centres,125,"https://www.google.com/maps/place/Echuca+VIC+3564/@-35.3620419,143.3833426,11z/data=!4m5!3m4!1s0x6ad90241b8844b57:0x50579a430a0d900!8m2!3d-36.1459548!4d144.7448007"
3585,SWAN HILL,-35.336175,143.560181,Other Regional Centres,114,"https://www.google.com/maps/place/Swan+Hill+VIC+3585/@-35.3621025,143.4533879,12z/data=!4m5!3m4!1s0x6adb85fab8ffe8b7:0x40579a430a0a620!8m2!3d-35.3396318!4d143.5524803"
3630,SHEPPARTON,-36.381171,145.39929,Other Regional Centres,112,"https://www.google.com/maps/place/Shepparton+VIC+3630/@-36.3733744,145.3218796,12z/data=!3m1!4b1!4m5!3m4!1s0x6ad8840dff08faab:0x50579a430a0db30!8m2!3d-36.383333!4d145.4"
3660,SEYMOUR,-37.025311,145.134148,Other Regional Centres,110,"https://www.google.com/maps/place/Seymour+VIC+3660/@-37.0310415,145.0212088,11z/data=!3m1!4b1!4m5!3m4!1s0x6ad7f51773ddb88f:0x50579a430a0d1e0!8m2!3d-37.0160797!4d145.1619887"
3671,BENALLA,-36.385144,145.420691,Other Regional Centres,100,"https://www.google.com/maps/place/Benalla+VIC+3672/@-36.1257342,146.8123864,12z/data=!4m5!3m4!1s0x6b270f40a77122f7:0x40579a430a04c00!8m2!3d-36.5462177!4d145.963353"
3689,WODONGA,-37.67576,144.989793,Other Regional Centres,116,"https://www.google.com/maps/place/Wodonga+VIC+3690/@-36.1257342,146.8123864,12z/data=!3m1!4b1!4m5!3m4!1s0x6b2158fb6fe4de6f:0x50579a430a0d3e0!8m2!3d-36.1240938!4d146.8817639"
3757,WHITTLESEA,-37.513714,145.115089,North Eastern Melbourne,148,"https://www.google.com/maps/place/Whittlesea,+VIC/@-37.9689834,145.1858093,12z/data=!4m5!3m4!1s0x6ad7b51d89289ec9:0xab771ec5302aa35c!8m2!3d-37.5382852!4d145.093449"
3802,ENDEAVOUR HILLS,-37.975281,145.254481,South Eastern Melbourne,160,"https://www.google.com/maps/place/Endeavour+Hills+VIC+3802/@-38.0205327,145.2393772,12z/data=!4m5!3m4!1s0x6ad616f64f2631d9:0x5045675218cded0!8m2!3d-37.969!4d145.2558"
3805,NARRE WARREN,-38.026383,145.306933,South Eastern Melbourne,159,"https://www.google.com/maps/place/Narre+Warren+VIC+3805/@-38.0420765,145.2793341,12z/data=!4m5!3m4!1s0x6ad610a973e6c281:0x5045675218ce020!8m2!3d-38.018!4d145.3"
3806,BERWICK,-38.030467,145.344621,South Eastern Melbourne,166,"https://www.google.com/maps/place/Berwick+VIC+3806/@-38.0420765,145.2793341,12z/data=!3m1!4b1!4m5!3m4!1s0x6ad6178027e4bc99:0x5045675218ce030!8m2!3d-38.031!4d145.344"
3810,PAKENHAM,-38.077355,145.493402,South Eastern Melbourne,144,"https://www.google.com/maps/place/Pakenham+VIC+3810/@-38.1492445,145.7870858,11z/data=!4m5!3m4!1s0x6ad61b86c6f44bc5:0x5045675218ce0b0!8m2!3d-38.073568!4d145.4851308"
3820,WARRAGUL,-38.163058,145.93086,Other Regional Centres,133,"https://www.google.com/maps/place/Warragul+VIC+3820/@-38.1750333,146.1794413,12z/data=!4m5!3m4!1s0x6b29bd8a50c773c7:0x40579a430a06aa0!8m2!3d-38.1537515!4d145.9297824"
3825,MOE,-38.176609,146.264851,Other Regional Centres,85,"https://www.google.com/maps/place/Moe+VIC+3825/@-38.1774382,146.223864,12z/data=!4m5!3m4!1s0x6b29097817adc63b:0x50579a430a0db70!8m2!3d-38.172222!4d146.267778"
3825,NEWBOROUGH,-38.183607,146.288321,Other Regional Centres,85,"https://www.google.com/maps/place/Newborough+VIC+3825/@-38.1774382,146.223864,12z/data=!3m1!4b1!4m5!3m4!1s0x6b290948ced58c0d:0x50579a430a0db90!8m2!3d-38.1760805!4d146.2985284"
3840,MORWELL,-38.23681,146.398703,Other Regional Centres,91,"https://www.google.com/maps/place/Morwell+VIC+3840/@-38.2018566,146.3743805,11z/data=!4m5!3m4!1s0x6b291184836fb14b:0x50579a430a0dc30!8m2!3d-38.2275886!4d146.4146185"
3844,TRARALGON,-38.193322,146.538373,Other Regional Centres,115,"https://www.google.com/maps/place/Traralgon+VIC+3844/@-38.1060196,146.9305985,11z/data=!4m5!3m4!1s0x6b2917784eec1ba1:0x50579a430a0dc10!8m2!3d-38.2033531!4d146.519786"
3850,SALE,-38.109349,147.068418,Other Regional Centres,113,"https://www.google.com/maps/place/Sale+VIC+3850/@-37.9638201,146.8572789,11z/data=!4m5!3m4!1s0x6b2f2fa7737fa007:0x50579a430a0dbf0!8m2!3d-38.1026004!4d147.073027"
3860,MAFFRA,-37.966701,146.975445,Other Regional Centres,113,"https://www.google.com/maps/place/Maffra+VIC+3860/@-37.8532164,147.4412988,11z/data=!4m5!3m4!1s0x6b2f340e46aa34a5:0x40579a430a06360!8m2!3d-37.9619053!4d146.9886238"
3875,BAIRNSDALE,-37.825114,147.628962,Other Regional Centres,120,"https://www.google.com/maps/place/Bairnsdale+VIC+3875/@-37.8532164,147.4412988,11z/data=!3m1!4b1!4m5!3m4!1s0x6b2f7ed232c6e60d:0x50579a430a0dc60!8m2!3d-37.833333!4d147.616667"
3915,HASTINGS,-38.30771,145.190507,Mornington Peninsula,157,"https://www.google.com/maps/place/Hastings+VIC+3915/@-38.1585981,144.7615881,10z/data=!4m5!3m4!1s0x6ad5e6ddfb0befd9:0x5045675218cea20!8m2!3d-38.306!4d145.189"
3929,FLINDERS,-38.473815,145.01628,Mornington Peninsula,157,"https://www.google.com/maps/place/Flinders+VIC+3929/@-38.4564155,144.8347986,11z/data=!3m1!4b1!4m5!3m4!1s0x6ad5b83b1c9ea7d5:0x5045675218ce6d0!8m2!3d-38.474!4d145.022"
3930,MT ELIZA,-38.187263,145.089626,Mornington Peninsula,183,"https://www.google.com/maps/place/Mount+Eliza+VIC+3930/@-38.2277717,144.9922129,12z/data=!4m5!3m4!1s0x6ad5dfa0228d7dd5:0x5045675218ce2e0!8m2!3d-38.189!4d145.092"
3931,MORNINGTON,-38.238386,145.064195,Mornington Peninsula,183,"https://www.google.com/maps/place/Mornington+VIC+3931/@-38.2277717,144.9922129,12z/data=!3m1!4b1!4m5!3m4!1s0x6ad5debc7abbe955:0x5045675218ce420!8m2!3d-38.228!4d145.062"
3934,MT MARTHA,-38.302366,144.994873,Mornington Peninsula,183,"https://www.google.com/maps/place/Mount+Martha+VIC+3934/@-38.3316807,144.8608707,11z/data=!4m5!3m4!1s0x6ad5db6da4bb76d9:0x5045675218ce4c0!8m2!3d-38.267!4d145.018"
3936,DROMANA,-38.333311,144.963564,Mornington Peninsula,159,"https://www.google.com/maps/place/Dromana+VIC+3936/@-38.323682,144.5546316,11z/data=!4m5!3m4!1s0x6ad5cf4ba2039f35:0x5045675218ce550!8m2!3d-38.338!4d144.965"
3944,PORTSEA,-38.338347,144.709285,Mornington Peninsula,159,"https://www.google.com/maps/place/Portsea+VIC+3944/@-38.323682,144.5546316,11z/data=!3m1!4b1!4m5!3m4!1s0x6ad436084c799351:0x5045675218ce540!8m2!3d-38.32!4d144.713"
3976,HAMPTON PARK,-38.032221,145.267863,South Eastern Melbourne,159,"https://www.google.com/maps/place/Hampton+Park+VIC+3976/@-38.1127619,145.2022748,12z/data=!4m5!3m4!1s0x6ad61176ea42e59d:0x5045675218ce040!8m2!3d-38.029!4d145.26"
3977,CRANBOURNE,-38.11122,145.268832,South Eastern Melbourne,152,"https://www.google.com/maps/place/Cranbourne+VIC+3977/@-38.1127619,145.2022748,12z/data=!3m1!4b1!4m5!3m4!1s0x6ad60d8d2eb71c37:0x5045675218ce150!8m2!3d-38.105!4d145.279"
